{
  "links": {
    "next": "https://api.nasa.gov/neo/rest/v1/feed?start_date=2017-08-24&end_date=2017-08-25&detailed=true&api_key=N7LkblDsc5aen05FJqBQ8wU4qSdmsftwJagVK7UD",
    "prev": "https://api.nasa.gov/neo/rest/v1/feed?start_date=2017-08-22&end_date=2017-08-23&detailed=true&api_key=N7LkblDsc5aen05FJqBQ8wU4qSdmsftwJagVK7UD",
    "self": "https://api.nasa.gov/neo/rest/v1/feed?start_date=2017-08-23&end_date=2017-08-24&detailed=true&api_key=N7LkblDsc5aen05FJqBQ8wU4qSdmsftwJagVK7UD"
  },
  "element_count": 9,
  "near_earth_objects": {
    "2017-08-23": [
      {
        "links": {
          "self": "https://api.nasa.gov/neo/rest/v1/neo/2242211?api_key=N7LkblDsc5aen05FJqBQ8wU4qSdmsftwJagVK7UD"
        },
        "neo_reference_id": "2242211",
        "name": "242211 (2003 QB90)",
        "nasa_jpl_url": "http://ssd.jpl.nasa.gov/sbdb.cgi?sstr=2242211",
        "absolute_magnitude_h": 18.2,
        "estimated_diameter": {
          "kilometers": {
            "estimated_diameter_min": 0.6089126221,
            "estimated_diameter_max": 1.3615700154
          },
          "meters": {
            "estimated_diameter_min": 608.9126221057,
            "estimated_diameter_max": 1361.5700153859
          },
          "miles": {
            "estimated_diameter_min": 0.3783606449,
            "estimated_diameter_max": 0.846040122
          },
          "feet": {
            "estimated_diameter_min": 1997.7448871092,
            "estimated_diameter_max": 4467.0933692788
          }
        },
        "is_potentially_hazardous_asteroid": false,
        "close_approach_data": [
          {
            "close_approach_date": "2017-08-23",
            "epoch_date_close_approach": 1503471600000,
            "relative_velocity": {
              "kilometers_per_second": "4.4762579248",
              "kilometers_per_hour": "16114.5285293318",
              "miles_per_hour": "10012.9413520173"
            },
            "miss_distance": {
              "astronomical": "0.2809477812",
              "lunar": "109.2886810303",
              "kilometers": "42029188",
              "miles": "26115728"
            },
            "orbiting_body": "Earth"
          }
        ],
        "orbital_data": {
          "orbit_id": "68",
          "orbit_determination_date": "2017-08-21 06:19:18",
          "orbit_uncertainty": "0",
          "minimum_orbit_intersection": ".212716",
          "jupiter_tisserand_invariant": "3.415",
          "epoch_osculation": "2458000.5",
          "eccentricity": ".4745153377034316",
          "semi_major_axis": "2.318594879699658",
          "inclination": "4.834995031088305",
          "ascending_node_longitude": "129.330110611896",
          "orbital_period": "1289.542724497666",
          "perihelion_distance": "1.218386047361527",
          "perihelion_argument": "208.8525066225631",
          "aphelion_distance": "3.418803712037788",
          "perihelion_time": "2458007.709140081216",
          "mean_anomaly": "357.9874335452911",
          "mean_motion": ".2791687263717734",
          "equinox": "J2000"
        }
      },
      {
        "links": {
          "self": "https://api.nasa.gov/neo/rest/v1/neo/3634275?api_key=N7LkblDsc5aen05FJqBQ8wU4qSdmsftwJagVK7UD"
        },
        "neo_reference_id": "3634275",
        "name": "(2013 GF23)",
        "nasa_jpl_url": "http://ssd.jpl.nasa.gov/sbdb.cgi?sstr=3634275",
        "absolute_magnitude_h": 23.7,
        "estimated_diameter": {
          "kilometers": {
            "estimated_diameter_min": 0.0483676488,
            "estimated_diameter_max": 0.1081533507
          },
          "meters": {
            "estimated_diameter_min": 48.3676488219,
            "estimated_diameter_max": 108.1533506775
          },
          "miles": {
            "estimated_diameter_min": 0.0300542543,
            "estimated_diameter_max": 0.0672033557
          },
          "feet": {
            "estimated_diameter_min": 158.6865169607,
            "estimated_diameter_max": 354.8338390368
          }
        },
        "is_potentially_hazardous_asteroid": false,
        "close_approach_data": [
          {
            "close_approach_date": "2017-08-23",
            "epoch_date_close_approach": 1503471600000,
            "relative_velocity": {
              "kilometers_per_second": "18.9840095128",
              "kilometers_per_hour": "68342.434245936",
              "miles_per_hour": "42465.3308790928"
            },
            "miss_distance": {
              "astronomical": "0.4335753161",
              "lunar": "168.6607971191",
              "kilometers": "64861944",
              "miles": "40303344"
            },
            "orbiting_body": "Earth"
          }
        ],
        "orbital_data": {
          "orbit_id": "7",
          "orbit_determination_date": "2017-04-06 08:46:15",
          "orbit_uncertainty": "7",
          "minimum_orbit_intersection": ".0804213",
          "jupiter_tisserand_invariant": "6.750",
          "epoch_osculation": "2458000.5",
          "eccentricity": ".3214206180139831",
          "semi_major_axis": ".8572412179731042",
          "inclination": "27.79092219496523",
          "ascending_node_longitude": "197.7367640124533",
          "orbital_period": "289.903189772581",
          "perihelion_distance": ".5817062159051294",
          "perihelion_argument": "204.3703577675743",
          "aphelion_distance": "1.132776220041079",
          "perihelion_time": "2458019.651198998713",
          "mean_anomaly": "336.2181587413888",
          "mean_motion": "1.241793856364283",
          "equinox": "J2000"
        }
      },
      {
        "links": {
          "self": "https://api.nasa.gov/neo/rest/v1/neo/3699951?api_key=N7LkblDsc5aen05FJqBQ8wU4qSdmsftwJagVK7UD"
        },
        "neo_reference_id": "3699951",
        "name": "(2014 WO371)",
        "nasa_jpl_url": "http://ssd.jpl.nasa.gov/sbdb.cgi?sstr=3699951",
        "absolute_magnitude_h": 22.4,
        "estimated_diameter": {
          "kilometers": {
            "estimated_diameter_min": 0.0880146521,
            "estimated_diameter_max": 0.1968067451
          },
          "meters": {
            "estimated_diameter_min": 88.0146520901,
            "estimated_diameter_max": 196.8067450894
          },
          "miles": {
            "estimated_diameter_min": 0.0546897524,
            "estimated_diameter_max": 0.122290004
          },
          "feet": {
            "estimated_diameter_min": 288.7619911632,
            "estimated_diameter_max": 645.6914415591
          }
        },
        "is_potentially_hazardous_asteroid": false,
        "close_approach_data": [
          {
            "close_approach_date": "2017-08-23",
            "epoch_date_close_approach": 1503471600000,
            "relative_velocity": {
              "kilometers_per_second": "7.8153829845",
              "kilometers_per_hour": "28135.378744296",
              "miles_per_hour": "17482.2301980877"
            },
            "miss_distance": {
              "astronomical": "0.3247207814",
              "lunar": "126.3163833618",
              "kilometers": "48577536",
              "miles": "30184682"
            },
            "orbiting_body": "Earth"
          }
        ],
        "orbital_data": {
          "orbit_id": "6",
          "orbit_determination_date": "2017-04-06 08:37:00",
          "orbit_uncertainty": "4",
          "minimum_orbit_intersection": ".00261913",
          "jupiter_tisserand_invariant": "5.830",
          "epoch_osculation": "2458000.5",
          "eccentricity": ".3678397626935557",
          "semi_major_axis": "1.04011179574261",
          "inclination": "6.030738835216408",
          "ascending_node_longitude": "271.0060535507515",
          "orbital_period": "387.45249276609",
          "perihelion_distance": ".6575173196218801",
          "perihelion_argument": "284.7881414814172",
          "aphelion_distance": "1.422706271863339",
          "perihelion_time": "2457870.134595457193",
          "mean_anomaly": "121.1285164288354",
          "mean_motion": ".92914617074702",
          "equinox": "J2000"
        }
      },
      {
        "links": {
          "self": "https://api.nasa.gov/neo/rest/v1/neo/3780793?api_key=N7LkblDsc5aen05FJqBQ8wU4qSdmsftwJagVK7UD"
        },
        "neo_reference_id": "3780793",
        "name": "(2017 QF3)",
        "nasa_jpl_url": "http://ssd.jpl.nasa.gov/sbdb.cgi?sstr=3780793",
        "absolute_magnitude_h": 28.057,
        "estimated_diameter": {
          "kilometers": {
            "estimated_diameter_min": 0.0065036173,
            "estimated_diameter_max": 0.0145425303
          },
          "meters": {
            "estimated_diameter_min": 6.5036172846,
            "estimated_diameter_max": 14.5425303479
          },
          "miles": {
            "estimated_diameter_min": 0.0040411592,
            "estimated_diameter_max": 0.0090363066
          },
          "feet": {
            "estimated_diameter_min": 21.3373277319,
            "estimated_diameter_max": 47.7117152667
          }
        },
        "is_potentially_hazardous_asteroid": false,
        "close_approach_data": [
          {
            "close_approach_date": "2017-08-23",
            "epoch_date_close_approach": 1503471600000,
            "relative_velocity": {
              "kilometers_per_second": "12.680234721",
              "kilometers_per_hour": "45648.8449955089",
              "miles_per_hour": "28364.4170473483"
            },
            "miss_distance": {
              "astronomical": "0.003697388",
              "lunar": "1.4382839203",
              "kilometers": "553121.375",
              "miles": "343693.6875"
            },
            "orbiting_body": "Earth"
          }
        ],
        "orbital_data": {
          "orbit_id": "1",
          "orbit_determination_date": "2017-08-21 18:42:05",
          "orbit_uncertainty": "8",
          "minimum_orbit_intersection": ".000838427",
          "jupiter_tisserand_invariant": "5.060",
          "epoch_osculation": "2457984.5",
          "eccentricity": ".4386408696968781",
          "semi_major_axis": "1.244378016600579",
          "inclination": "2.504528454292006",
          "ascending_node_longitude": "148.2835917036562",
          "orbital_period": "507.0221378694363",
          "perihelion_distance": ".6985429611672247",
          "perihelion_argument": "273.0970671388561",
          "aphelion_distance": "1.790213072033933",
          "perihelion_time": "2458048.596480115917",
          "mean_anomaly": "314.4896936084631",
          "mean_motion": ".7100281686175681",
          "equinox": "J2000"
        }
      }
    ],
    "2017-08-24": [
      {
        "links": {
          "self": "https://api.nasa.gov/neo/rest/v1/neo/2005131?api_key=N7LkblDsc5aen05FJqBQ8wU4qSdmsftwJagVK7UD"
        },
        "neo_reference_id": "2005131",
        "name": "5131 (1990 BG)",
        "nasa_jpl_url": "http://ssd.jpl.nasa.gov/sbdb.cgi?sstr=2005131",
        "absolute_magnitude_h": 14.7,
        "estimated_diameter": {
          "kilometers": {
            "estimated_diameter_min": 3.0517923259,
            "estimated_diameter_max": 6.824015094
          },
          "meters": {
            "estimated_diameter_min": 3051.7923259387,
            "estimated_diameter_max": 6824.0150940112
          },
          "miles": {
            "estimated_diameter_min": 1.8962952494,
            "estimated_diameter_max": 4.240245083
          },
          "feet": {
            "estimated_diameter_min": 10012.4423346328,
            "estimated_diameter_max": 22388.5016810356
          }
        },
        "is_potentially_hazardous_asteroid": false,
        "close_approach_data": [
          {
            "close_approach_date": "2017-08-24",
            "epoch_date_close_approach": 1503558000000,
            "relative_velocity": {
              "kilometers_per_second": "32.5392149099",
              "kilometers_per_hour": "117141.1736755856",
              "miles_per_hour": "72786.9698319215"
            },
            "miss_distance": {
              "astronomical": "0.4509979876",
              "lunar": "175.4382171631",
              "kilometers": "67468336",
              "miles": "41922880"
            },
            "orbiting_body": "Earth"
          }
        ],
        "orbital_data": {
          "orbit_id": "193",
          "orbit_determination_date": "2017-04-21 06:21:19",
          "orbit_uncertainty": "0",
          "minimum_orbit_intersection": ".274424",
          "jupiter_tisserand_invariant": "4.208",
          "epoch_osculation": "2458000.5",
          "eccentricity": ".5692345817082008",
          "semi_major_axis": "1.486089717973639",
          "inclination": "36.42465256137592",
          "ascending_node_longitude": "110.3891276841034",
          "orbital_period": "661.707368707502",
          "perihelion_distance": ".6401560589820566",
          "perihelion_argument": "135.8175763317538",
          "aphelion_distance": "2.332023376965223",
          "perihelion_time": "2457957.138067833143",
          "mean_anomaly": "23.59093508443102",
          "mean_motion": ".5440471377901984",
          "equinox": "J2000"
        }
      },
      {
        "links": {
          "self": "https://api.nasa.gov/neo/rest/v1/neo/2277475?api_key=N7LkblDsc5aen05FJqBQ8wU4qSdmsftwJagVK7UD"
        },
        "neo_reference_id": "2277475",
        "name": "277475 (2005 WK4)",
        "nasa_jpl_url": "http://ssd.jpl.nasa.gov/sbdb.cgi?sstr=2277475",
        "absolute_magnitude_h": 20.1,
        "estimated_diameter": {
          "kilometers": {
            "estimated_diameter_min": 0.2538370294,
            "estimated_diameter_max": 0.5675968529
          },
          "meters": {
            "estimated_diameter_min": 253.8370293645,
            "estimated_diameter_max": 567.5968528656
          },
          "miles": {
            "estimated_diameter_min": 0.1577269688,
            "estimated_diameter_max": 0.3526882241
          },
          "feet": {
            "estimated_diameter_min": 832.7986794202,
            "estimated_diameter_max": 1862.1944587557
          }
        },
        "is_potentially_hazardous_asteroid": true,
        "close_approach_data": [
          {
            "close_approach_date": "2017-08-24",
            "epoch_date_close_approach": 1503558000000,
            "relative_velocity": {
              "kilometers_per_second": "18.7842593782",
              "kilometers_per_hour": "67623.333761444",
              "miles_per_hour": "42018.5098030484"
            },
            "miss_distance": {
              "astronomical": "0.3609642975",
              "lunar": "140.4151153564",
              "kilometers": "53999492",
              "miles": "33553728"
            },
            "orbiting_body": "Earth"
          }
        ],
        "orbital_data": {
          "orbit_id": "89",
          "orbit_determination_date": "2017-04-06 09:24:26",
          "orbit_uncertainty": "0",
          "minimum_orbit_intersection": ".00370865",
          "jupiter_tisserand_invariant": "5.992",
          "epoch_osculation": "2458000.5",
          "eccentricity": ".2374401240519563",
          "semi_major_axis": "1.010646721140152",
          "inclination": "9.843262550594543",
          "ascending_node_longitude": "138.141106053268",
          "orbital_period": "371.1055794638431",
          "perihelion_distance": ".7706786382999316",
          "perihelion_argument": "74.06324914441342",
          "aphelion_distance": "1.250614803980373",
          "perihelion_time": "2457916.959922284400",
          "mean_anomaly": "81.04008573804285",
          "mean_motion": ".9700743398148637",
          "equinox": "J2000"
        }
      },
      {
        "links": {
          "self": "https://api.nasa.gov/neo/rest/v1/neo/2410622?api_key=N7LkblDsc5aen05FJqBQ8wU4qSdmsftwJagVK7UD"
        },
        "neo_reference_id": "2410622",
        "name": "410622 (2008 QF)",
        "nasa_jpl_url": "http://ssd.jpl.nasa.gov/sbdb.cgi?sstr=2410622",
        "absolute_magnitude_h": 21.6,
        "estimated_diameter": {
          "kilometers": {
            "estimated_diameter_min": 0.1272198785,
            "estimated_diameter_max": 0.2844722965
          },
          "meters": {
            "estimated_diameter_min": 127.2198785394,
            "estimated_diameter_max": 284.4722965033
          },
          "miles": {
            "estimated_diameter_min": 0.0790507431,
            "estimated_diameter_max": 0.1767628354
          },
          "feet": {
            "estimated_diameter_min": 417.3880663071,
            "estimated_diameter_max": 933.3080892598
          }
        },
        "is_potentially_hazardous_asteroid": false,
        "close_approach_data": [
          {
            "close_approach_date": "2017-08-24",
            "epoch_date_close_approach": 1503558000000,
            "relative_velocity": {
              "kilometers_per_second": "1.9506511394",
              "kilometers_per_hour": "7022.3441017226",
              "miles_per_hour": "4363.4115336509"
            },
            "miss_distance": {
              "astronomical": "0.2905998157",
              "lunar": "113.0433349609",
              "kilometers": "43473116",
              "miles": "27012942"
            },
            "orbiting_body": "Earth"
          }
        ],
        "orbital_data": {
          "orbit_id": "32",
          "orbit_determination_date": "2017-07-30 06:19:21",
          "orbit_uncertainty": "0",
          "minimum_orbit_intersection": ".28775",
          "jupiter_tisserand_invariant": "3.673",
          "epoch_osculation": "2458000.5",
          "eccentricity": ".3768998748881119",
          "semi_major_axis": "2.077394884024859",
          "inclination": "3.784008568253373",
          "ascending_node_longitude": "192.602744550275",
          "orbital_period": "1093.646616044573",
          "perihelion_distance": "1.294425012142685",
          "perihelion_argument": "136.4289194403292",
          "aphelion_distance": "2.860364755907032",
          "perihelion_time": "2457984.923267929237",
          "mean_anomaly": "5.12745475842632",
          "mean_motion": ".3291739714808641",
          "equinox": "J2000"
        }
      },
      {
        "links": {
          "self": "https://api.nasa.gov/neo/rest/v1/neo/3742136?api_key=N7LkblDsc5aen05FJqBQ8wU4qSdmsftwJagVK7UD"
        },
        "neo_reference_id": "3742136",
        "name": "(2016 CL32)",
        "nasa_jpl_url": "http://ssd.jpl.nasa.gov/sbdb.cgi?sstr=3742136",
        "absolute_magnitude_h": 19.3,
        "estimated_diameter": {
          "kilometers": {
            "estimated_diameter_min": 0.3669061375,
            "estimated_diameter_max": 0.8204270649
          },
          "meters": {
            "estimated_diameter_min": 366.9061375314,
            "estimated_diameter_max": 820.4270648822
          },
          "miles": {
            "estimated_diameter_min": 0.2279848336,
            "estimated_diameter_max": 0.5097895857
          },
          "feet": {
            "estimated_diameter_min": 1203.7603322587,
            "estimated_diameter_max": 2691.6899315481
          }
        },
        "is_potentially_hazardous_asteroid": true,
        "close_approach_data": [
          {
            "close_approach_date": "2017-08-24",
            "epoch_date_close_approach": 1503558000000,
            "relative_velocity": {
              "kilometers_per_second": "7.3318103139",
              "kilometers_per_hour": "26394.5171300757",
              "miles_per_hour": "16400.5264911851"
            },
            "miss_distance": {
              "astronomical": "0.4616506442",
              "lunar": "179.5820922852",
              "kilometers": "69061952",
              "miles": "42913108"
            },
            "orbiting_body": "Earth"
          }
        ],
        "orbital_data": {
          "orbit_id": "26",
          "orbit_determination_date": "2017-08-01 06:18:16",
          "orbit_uncertainty": "2",
          "minimum_orbit_intersection": ".0254269",
          "jupiter_tisserand_invariant": "4.316",
          "epoch_osculation": "2458000.5",
          "eccentricity": ".4604220486317818",
          "semi_major_axis": "1.54365902734244",
          "inclination": "12.20988851719615",
          "ascending_node_longitude": "123.5813345268793",
          "orbital_period": "700.5279899228725",
          "perihelion_distance": ".8329243755844903",
          "perihelion_argument": "292.8280697404275",
          "aphelion_distance": "2.25439367910039",
          "perihelion_time": "2458082.678603773052",
          "mean_anomaly": "317.7685720144375",
          "mean_motion": ".5138980956915593",
          "equinox": "J2000"
        }
      },
      {
        "links": {
          "self": "https://api.nasa.gov/neo/rest/v1/neo/3779442?api_key=N7LkblDsc5aen05FJqBQ8wU4qSdmsftwJagVK7UD"
        },
        "neo_reference_id": "3779442",
        "name": "(2017 PE)",
        "nasa_jpl_url": "http://ssd.jpl.nasa.gov/sbdb.cgi?sstr=3779442",
        "absolute_magnitude_h": 24.395,
        "estimated_diameter": {
          "kilometers": {
            "estimated_diameter_min": 0.035120038,
            "estimated_diameter_max": 0.0785307922
          },
          "meters": {
            "estimated_diameter_min": 35.1200379567,
            "estimated_diameter_max": 78.5307922435
          },
          "miles": {
            "estimated_diameter_min": 0.0218225731,
            "estimated_diameter_max": 0.0487967569
          },
          "feet": {
            "estimated_diameter_min": 115.2232253298,
            "estimated_diameter_max": 257.6469644242
          }
        },
        "is_potentially_hazardous_asteroid": false,
        "close_approach_data": [
          {
            "close_approach_date": "2017-08-24",
            "epoch_date_close_approach": 1503558000000,
            "relative_velocity": {
              "kilometers_per_second": "7.0545045152",
              "kilometers_per_hour": "25396.2162545774",
              "miles_per_hour": "15780.2211499623"
            },
            "miss_distance": {
              "astronomical": "0.0495891418",
              "lunar": "19.2901763916",
              "kilometers": "7418430",
              "miles": "4609599"
            },
            "orbiting_body": "Earth"
          }
        ],
        "orbital_data": {
          "orbit_id": "6",
          "orbit_determination_date": "2017-08-23 06:20:53",
          "orbit_uncertainty": "7",
          "minimum_orbit_intersection": ".0461268",
          "jupiter_tisserand_invariant": "5.850",
          "epoch_osculation": "2458000.5",
          "eccentricity": ".2319474249229074",
          "semi_major_axis": "1.043489713915402",
          "inclination": "7.724100856307057",
          "ascending_node_longitude": "314.6406593610099",
          "orbital_period": "389.3414890222806",
          "perihelion_distance": ".8014549618391831",
          "perihelion_argument": "118.1163187168916",
          "aphelion_distance": "1.285524465991621",
          "perihelion_time": "2458071.726886141525",
          "mean_anomaly": "294.140902693569",
          "mean_motion": ".924638165082372",
          "equinox": "J2000"
        }
      }
    ]
  }
}